{"type": "FeatureCollection", "features": [ {"type": "Feature", "properties": {"norad_id": 52912, "name": "GAOFEN-12 03", "group": "resource", "lat": 7.782210366760896, "lon": -113.48173894586864, "alt_km": 631.4434501475489, "timestamp": "2025-12-26T13:39:18.618703+00:00", "meta": {"OBJECT_NAME": "GAOFEN-12 03", "OBJECT_ID": "2022-069A", "EPOCH": "2025-12-26T07:07:39.912672", "MEAN_MOTION": 14.7963966, "ECCENTRICITY": 0.00017546, "INCLINATION": 97.8475, "RA_OF_ASC_NODE": 247.3327, "ARG_OF_PERICENTER": 46.8796, "MEAN_ANOMALY": 313.2563, "EPHEMERIS_TYPE": 0, "CLASSIFICATION_TYPE": "U", "NORAD_CAT_ID": 52912, "ELEMENT_SET_NO": 999, "REV_AT_EPOCH": 18904, "BSTAR": 0.00012354612, "MEAN_MOTION_DOT": 8.76e-06, "MEAN_MOTION_DDOT": 0}, "tle": {"line1": "1 52912U 22069A   25360.29698973  .00000876  00000+0  12355-3 0  9996", "line2": "2 52912  97.8475 247.3327 0001754  46.8796 313.2563 14.79639660189042"}}, "geometry": {"type": "Point", "coordinates": [-113.48173894586864, 7.782210366760896]}}, {"type": "Feature", "properties": {"norad_id": 54754, "name": "SWOT", "group": "resource", "lat": -0.9541742798898459, "lon": -91.88717758624439, "alt_km": 896.0342900723435, "timestamp": "2025-12-26T13:39:18.618713+00:00", "meta": {"OBJECT_NAME": "SWOT", "OBJECT_ID": "2022-173A", "EPOCH": "2025-12-26T06:48:00.754848", "MEAN_MOTION": 14.00168933, "ECCENTRICITY": 4.272e-05, "INCLINATION": 77.6107, "RA_OF_ASC_NODE": 268.708, "ARG_OF_PERICENTER": 81.2252, "MEAN_ANOMALY": 278.8948, "EPHEMERIS_TYPE": 0, "CLASSIFICATION_TYPE": "U", "NORAD_CAT_ID": 54754, "ELEMENT_SET_NO": 999, "REV_AT_EPOCH": 15495, "BSTAR": 9.2266313e-05, "MEAN_MOTION_DOT": 1.34e-06, "MEAN_MOTION_DDOT": 0}, "tle": {"line1": "1 54754U 22173A   25360.28334207  .00000134  00000+0  92266-4 0  9991", "line2": "2 54754  77.6107 268.7080 0000427  81.2252 278.8948 14.00168933154954"}}, "geometry": {"type": "Point", "coordinates": [-91.88717758624439, -0.9541742798898459]}}, {"type": "Feature", "properties": {"norad_id": 57654, "name": "GAOFEN-12 04", "group": "resource", "lat": -2.4754303627638, "lon": 95.77246941333652, "alt_km": 633.6720631586168, "timestamp": "2025-12-26T13:39:18.618724+00:00", "meta": {"OBJECT_NAME": "GAOFEN-12 04", "OBJECT_ID": "2023-123A", "EPOCH": "2025-12-26T06:20:31.531776", "MEAN_MOTION": 14.79738603, "ECCENTRICITY": 0.00012024, "INCLINATION": 97.9129, "RA_OF_ASC_NODE": 275.8169, "ARG_OF_PERICENTER": 80.4964, "MEAN_ANOMALY": 279.6383, "EPHEMERIS_TYPE": 0, "CLASSIFICATION_TYPE": "U", "NORAD_CAT_ID": 57654, "ELEMENT_SET_NO": 999, "REV_AT_EPOCH": 12705, "BSTAR": 0.00020213503, "MEAN_MOTION_DOT": 1.468e-05, "MEAN_MOTION_DDOT": 0}, "tle": {"line1": "1 57654U 23123A   25360.26425384  .00001468  00000+0  20214-3 0  9998", "line2": "2 57654  97.9129 275.8169 0001202  80.4964 279.6383 14.79738603127051"}}, "geometry": {"type": "Point", "coordinates": [95.77246941333652, -2.4754303627638]}}, {"type": "Feature", "properties": {"norad_id": 59065, "name": "PARS 1", "group": "resource", "lat": 30.799283091918177, "lon": -32.6843803004404, "alt_km": 432.95697088547604, "timestamp": "2025-12-26T13:39:18.618734+00:00", "meta": {"OBJECT_NAME": "PARS 1", "OBJECT_ID": "2024-039Q", "EPOCH": "2025-12-26T07:17:18.218976", "MEAN_MOTION": 15.41284024, "ECCENTRICITY": 0.00114154, "INCLINATION": 97.4655, "RA_OF_ASC_NODE": 331.5278, "ARG_OF_PERICENTER": 30.5096, "MEAN_ANOMALY": 329.6812, "EPHEMERIS_TYPE": 0, "CLASSIFICATION_TYPE": "U", "NORAD_CAT_ID": 59065, "ELEMENT_SET_NO": 999, "REV_AT_EPOCH": 10197, "BSTAR": 0.00030148506, "MEAN_MOTION_DOT": 0.00012494, "MEAN_MOTION_DDOT": 0}, "tle": {"line1": "1 59065U 24039Q   25360.30368309  .00012494  00000+0  30149-3 0  9990", "line2": "2 59065  97.4655 331.5278 0011415  30.5096 329.6812 15.41284024101977"}}, "geometry": {"type": "Point", "coordinates": [-32.6843803004404, 30.799283091918177]}}, {"type": "Feature", "properties": {"norad_id": 59371, "name": "RESURS-P 4", "group": "resource", "lat": 81.85264333296573, "lon": -116.25670832067065, "alt_km": 461.24203308559026, "timestamp": "2025-12-26T13:39:18.618745+00:00", "meta": {"OBJECT_NAME": "RESURS-P 4", "OBJECT_ID": "2024-061A", "EPOCH": "2025-12-26T07:00:37.672416", "MEAN_MOTION": 15.32204641, "ECCENTRICITY": 7.967e-05, "INCLINATION": 97.2563, "RA_OF_ASC_NODE": 306.3463, "ARG_OF_PERICENTER": 88.0684, "MEAN_ANOMALY": 272.0649, "EPHEMERIS_TYPE": 0, "CLASSIFICATION_TYPE": "U", "NORAD_CAT_ID": 59371, "ELEMENT_SET_NO": 999, "REV_AT_EPOCH": 9728, "BSTAR": 0.00013792575, "MEAN_MOTION_DOT": 4.212e-05, "MEAN_MOTION_DDOT": 0}, "tle": {"line1": "1 59371U 24061A   25360.29210269  .00004212  00000+0  13793-3 0  9999", "line2": "2 59371  97.2563 306.3463 0000796  88.0684 272.0649 15.32204641 97284"}}, "geometry": {"type": "Point", "coordinates": [-116.25670832067065, 81.85264333296573]}}, {"type": "Feature", "properties": {"norad_id": 59625, "name": "LEGION 1", "group": "resource", "lat": -74.5063241008448, "lon": -133.3669890655088, "alt_km": 520.9151137780755, "timestamp": "2025-12-26T13:39:18.618760+00:00", "meta": {"OBJECT_NAME": "LEGION 1", "OBJECT_ID": "2024-081A", "EPOCH": "2025-12-26T06:11:38.073120", "MEAN_MOTION": 15.16611477, "ECCENTRICITY": 0.00036322, "INCLINATION": 97.5192, "RA_OF_ASC_NODE": 74.7811, "ARG_OF_PERICENTER": 253.9173, "MEAN_ANOMALY": 106.166, "EPHEMERIS_TYPE": 0, "CLASSIFICATION_TYPE": "U", "NORAD_CAT_ID": 59625, "ELEMENT_SET_NO": 999, "REV_AT_EPOCH": 9132, "BSTAR": 0.00025134291, "MEAN_MOTION_DOT": 4.845e-05, "MEAN_MOTION_DDOT": 0}, "tle": {"line1": "1 59625U 24081A   25360.25807955  .00004845  00000+0  25134-3 0  9997", "line2": "2 59625  97.5192  74.7811 0003632 253.9173 106.1660 15.16611477 91328"}}, "geometry": {"type": "Point", "coordinates": [-133.3669890655088, -74.5063241008448]}}, {"type": "Feature", "properties": {"norad_id": 59626, "name": "LEGION 2", "group": "resource", "lat": 74.78010770958961, "lon": 46.131128987845436, "alt_km": 512.6458062168176, "timestamp": "2025-12-26T13:39:18.618770+00:00", "meta": {"OBJECT_NAME": "LEGION 2", "OBJECT_ID": "2024-081B", "EPOCH": "2025-12-26T05:24:01.503360", "MEAN_MOTION": 15.16624959, "ECCENTRICITY": 0.00058254, "INCLINATION": 97.5196, "RA_OF_ASC_NODE": 74.8363, "ARG_OF_PERICENTER": 235.5627, "MEAN_ANOMALY": 124.5056, "EPHEMERIS_TYPE": 0, "CLASSIFICATION_TYPE": "U", "NORAD_CAT_ID": 59626, "ELEMENT_SET_NO": 999, "REV_AT_EPOCH": 9132, "BSTAR": 0.0002962573, "MEAN_MOTION_DOT": 5.727e-05, "MEAN_MOTION_DDOT": 0}, "tle": {"line1": "1 59626U 24081B   25360.22501740  .00005727  00000+0  29626-3 0  9998", "line2": "2 59626  97.5196  74.8363 0005825 235.5627 124.5056 15.16624959 91324"}}, "geometry": {"type": "Point", "coordinates": [46.131128987845436, 74.78010770958961]}}, {"type": "Feature", "properties": {"norad_id": 60182, "name": "ALOS-4 (DAICHI-4)", "group": "resource", "lat": 49.87728054716275, "lon": 85.70868626350943, "alt_km": 625.8031990507616, "timestamp": "2025-12-26T13:39:18.618781+00:00", "meta": {"OBJECT_NAME": "ALOS-4 (DAICHI-4)", "OBJECT_ID": "2024-123A", "EPOCH": "2025-12-26T06:56:05.330976", "MEAN_MOTION": 14.79475251, "ECCENTRICITY": 0.00014051, "INCLINATION": 97.9216, "RA_OF_ASC_NODE": 94.9427, "ARG_OF_PERICENTER": 101.0532, "MEAN_ANOMALY": 259.0837, "EPHEMERIS_TYPE": 0, "CLASSIFICATION_TYPE": "U", "NORAD_CAT_ID": 60182, "ELEMENT_SET_NO": 999, "REV_AT_EPOCH": 8031, "BSTAR": 0.00030678424, "MEAN_MOTION_DOT": 2.241e-05, "MEAN_MOTION_DDOT": 0}, "tle": {"line1": "1 60182U 24123A   25360.28895059  .00002241  00000+0  30678-3 0  9996", "line2": "2 60182  97.9216  94.9427 0001405 101.0532 259.0837 14.79475251 80311"}}, "geometry": {"type": "Point", "coordinates": [85.70868626350943, 49.87728054716275]}}, {"type": "Feature", "properties": {"norad_id": 60452, "name": "LEGION 3", "group": "resource", "lat": -24.119046878750982, "lon": 82.60516034373784, "alt_km": 514.8578918923185, "timestamp": "2025-12-26T13:39:18.618791+00:00", "meta": {"OBJECT_NAME": "LEGION 3", "OBJECT_ID": "2024-146A", "EPOCH": "2025-12-26T01:38:14.897472", "MEAN_MOTION": 15.15894786, "ECCENTRICITY": 0.00157668, "INCLINATION": 45.0002, "RA_OF_ASC_NODE": 238.6742, "ARG_OF_PERICENTER": 269.5324, "MEAN_ANOMALY": 90.3748, "EPHEMERIS_TYPE": 0, "CLASSIFICATION_TYPE": "U", "NORAD_CAT_ID": 60452, "ELEMENT_SET_NO": 999, "REV_AT_EPOCH": 7575, "BSTAR": 0.00028452134, "MEAN_MOTION_DOT": 5.294e-05, "MEAN_MOTION_DDOT": 0}, "tle": {"line1": "1 60452U 24146A   25360.06822798  .00005294  00000+0  28452-3 0  9995", "line2": "2 60452  45.0002 238.6742 0015766 269.5324  90.3748 15.15894786 75757"}}, "geometry": {"type": "Point", "coordinates": [82.60516034373784, -24.119046878750982]}}, {"type": "Feature", "properties": {"norad_id": 60453, "name": "LEGION 4", "group": "resource", "lat": -24.142621975828682, "lon": 174.38939060996054, "alt_km": 525.9855821143228, "timestamp": "2025-12-26T13:39:18.618802+00:00", "meta": {"OBJECT_NAME": "LEGION 4", "OBJECT_ID": "2024-146B", "EPOCH": "2025-12-26T06:23:02.730048", "MEAN_MOTION": 15.15971487, "ECCENTRICITY": 0.0007942, "INCLINATION": 45.0398, "RA_OF_ASC_NODE": 329.4045, "ARG_OF_PERICENTER": 26.8443, "MEAN_ANOMALY": 333.2846, "EPHEMERIS_TYPE": 0, "CLASSIFICATION_TYPE": "U", "NORAD_CAT_ID": 60453, "ELEMENT_SET_NO": 999, "REV_AT_EPOCH": 7463, "BSTAR": 0.00033441281, "MEAN_MOTION_DOT": 6.271e-05, "MEAN_MOTION_DDOT": 0}, "tle": {"line1": "1 60453U 24146B   25360.26600382  .00006271  00000+0  33441-3 0  9991", "line2": "2 60453  45.0398 329.4045 0007942  26.8443 333.2846 15.15971487 74632"}}, "geometry": {"type": "Point", "coordinates": [174.38939060996054, -24.142621975828682]}}]}